{"type": "FeatureCollection", "features": [{"type": "Feature", "properties": {"norad_id": 26766, "name": "INTELSAT 10 (IS-10)", "group": "intelsat", "lat": -7.75657078258168, "lon": -55.10985989657715, "alt_km": 36093.86908690235, "timestamp": "2025-12-09T04:51:47.175551+00:00", "meta": {"OBJECT_NAME": "INTELSAT 10 (IS-10)", "OBJECT_ID": "2001-019A", "EPOCH": "2025-12-08T12:50:38.847840", "MEAN_MOTION": 0.99078973, "ECCENTRICITY": 0.0007853, "INCLINATION": 8.6199, "RA_OF_ASC_NODE": 61.1985, "ARG_OF_PERICENTER": 221.9209, "MEAN_ANOMALY": 143.9126, "EPHEMERIS_TYPE": 0, "CLASSIFICATION_TYPE": "U", "NORAD_CAT_ID": 26766, "ELEMENT_SET_NO": 999, "REV_AT_EPOCH": 4369, "BSTAR": 0, "MEAN_MOTION_DOT": -2.74e-06, "MEAN_MOTION_DDOT": 0}, "tle": {"line1": "1 26766U 01019A   25342.53517185 -.00000274  00000+0  00000+0 0  9991", "line2": "2 26766   8.6199  61.1985 0007853 221.9209 143.9126  0.99078973 43690"}}, "geometry": {"type": "Point", "coordinates": [-55.10985989657715, -7.75657078258168]}}, {"type": "Feature", "properties": {"norad_id": 26900, "name": "INTELSAT 902 (IS-902)", "group": "intelsat", "lat": 2.5608347884785023, "lon": 100.82151656134435, "alt_km": 35802.54368501718, "timestamp": "2025-12-09T04:51:47.175576+00:00", "meta": {"OBJECT_NAME": "INTELSAT 902 (IS-902)", "OBJECT_ID": "2001-039A", "EPOCH": "2025-12-01T16:59:59.311968", "MEAN_MOTION": 1.00270327, "ECCENTRICITY": 0.00043097, "INCLINATION": 5.6187, "RA_OF_ASC_NODE": 74.2002, "ARG_OF_PERICENTER": 175.119, "MEAN_ANOMALY": 26.3816, "EPHEMERIS_TYPE": 0, "CLASSIFICATION_TYPE": "U", "NORAD_CAT_ID": 26900, "ELEMENT_SET_NO": 999, "REV_AT_EPOCH": 8871, "BSTAR": 0, "MEAN_MOTION_DOT": -2.63e-06, "MEAN_MOTION_DDOT": 0}, "tle": {"line1": "1 26900U 01039A   25335.70832537 -.00000263  00000+0  00000+0 0  9993", "line2": "2 26900   5.6187  74.2002 0004309 175.1190  26.3816  1.00270327 88713"}}, "geometry": {"type": "Point", "coordinates": [100.82151656134435, 2.5608347884785023]}}, {"type": "Feature", "properties": {"norad_id": 27380, "name": "INTELSAT 904 (IS-904)", "group": "intelsat", "lat": 4.811502646831856, "lon": 119.41374217414516, "alt_km": 35793.00094338872, "timestamp": "2025-12-09T04:51:47.175592+00:00", "meta": {"OBJECT_NAME": "INTELSAT 904 (IS-904)", "OBJECT_ID": "2002-007A", "EPOCH": "2025-12-08T15:09:58.269024", "MEAN_MOTION": 1.00268358, "ECCENTRICITY": 0.0001612, "INCLINATION": 6.4433, "RA_OF_ASC_NODE": 71.4765, "ARG_OF_PERICENTER": 211.5706, "MEAN_ANOMALY": 350.5417, "EPHEMERIS_TYPE": 0, "CLASSIFICATION_TYPE": "U", "NORAD_CAT_ID": 27380, "ELEMENT_SET_NO": 999, "REV_AT_EPOCH": 8717, "BSTAR": 0, "MEAN_MOTION_DOT": -2.26e-06, "MEAN_MOTION_DDOT": 0}, "tle": {"line1": "1 27380U 02007A   25342.63192441 -.00000226  00000+0  00000+0 0  9994", "line2": "2 27380   6.4433  71.4765 0001612 211.5706 350.5417  1.00268358 87175"}}, "geometry": {"type": "Point", "coordinates": [119.41374217414516, 4.811502646831856]}}, {"type": "Feature", "properties": {"norad_id": 27426, "name": "DIRECTV 5 (TEMPO 1)", "group": "intelsat", "lat": -2.603362634823957, "lon": 41.14565221848222, "alt_km": 35795.73333996295, "timestamp": "2025-12-09T04:51:47.175606+00:00", "meta": {"OBJECT_NAME": "DIRECTV 5 (TEMPO 1)", "OBJECT_ID": "2002-023A", "EPOCH": "2025-12-08T16:30:20.570976", "MEAN_MOTION": 1.00271885, "ECCENTRICITY": 0.0003912, "INCLINATION": 4.3919, "RA_OF_ASC_NODE": 77.6983, "ARG_OF_PERICENTER": 199.1357, "MEAN_ANOMALY": 298.3249, "EPHEMERIS_TYPE": 0, "CLASSIFICATION_TYPE": "U", "NORAD_CAT_ID": 27426, "ELEMENT_SET_NO": 999, "REV_AT_EPOCH": 8621, "BSTAR": 0, "MEAN_MOTION_DOT": -5.6e-07, "MEAN_MOTION_DDOT": 0}, "tle": {"line1": "1 27426U 02023A   25342.68773809 -.00000056  00000+0  00000+0 0  9992", "line2": "2 27426   4.3919  77.6983 0003912 199.1357 298.3249  1.00271885 86215"}}, "geometry": {"type": "Point", "coordinates": [41.14565221848222, -2.603362634823957]}}, {"type": "Feature", "properties": {"norad_id": 27438, "name": "INTELSAT 905 (IS-905)", "group": "intelsat", "lat": -5.321205512722585, "lon": 14.12481715118469, "alt_km": 35791.43192856518, "timestamp": "2025-12-09T04:51:47.175619+00:00", "meta": {"OBJECT_NAME": "INTELSAT 905 (IS-905)", "OBJECT_ID": "2002-027A", "EPOCH": "2025-12-08T12:00:17.267040", "MEAN_MOTION": 1.00271271, "ECCENTRICITY": 0.00028954, "INCLINATION": 6.2751, "RA_OF_ASC_NODE": 72.1034, "ARG_OF_PERICENTER": 189.9537, "MEAN_ANOMALY": 218.3132, "EPHEMERIS_TYPE": 0, "CLASSIFICATION_TYPE": "U", "NORAD_CAT_ID": 27438, "ELEMENT_SET_NO": 999, "REV_AT_EPOCH": 4945, "BSTAR": 0, "MEAN_MOTION_DOT": 9.4e-07, "MEAN_MOTION_DDOT": 0}, "tle": {"line1": "1 27438U 02027A   25342.50019985  .00000094  00000+0  00000+0 0  9999", "line2": "2 27438   6.2751  72.1034 0002895 189.9537 218.3132  1.00271271 49453"}}, "geometry": {"type": "Point", "coordinates": [14.12481715118469, -5.321205512722585]}}, {"type": "Feature", "properties": {"norad_id": 27445, "name": "GALAXY 3C (G-3C)", "group": "intelsat", "lat": -1.3179248340600418, "lon": 56.3037593630753, "alt_km": 35789.20993135374, "timestamp": "2025-12-09T04:51:47.175632+00:00", "meta": {"OBJECT_NAME": "GALAXY 3C (G-3C)", "OBJECT_ID": "2002-030A", "EPOCH": "2025-12-08T18:18:47.201184", "MEAN_MOTION": 1.00270897, "ECCENTRICITY": 0.0001142, "INCLINATION": 3.2543, "RA_OF_ASC_NODE": 80.5462, "ARG_OF_PERICENTER": 99.6884, "MEAN_ANOMALY": 77.3645, "EPHEMERIS_TYPE": 0, "CLASSIFICATION_TYPE": "U", "NORAD_CAT_ID": 27445, "ELEMENT_SET_NO": 999, "REV_AT_EPOCH": 4458, "BSTAR": 0, "MEAN_MOTION_DOT": -1.51e-06, "MEAN_MOTION_DDOT": 0}, "tle": {"line1": "1 27445U 02030A   25342.76304631 -.00000151  00000+0  00000+0 0  9999", "line2": "2 27445   3.2543  80.5462 0001142  99.6884  77.3645  1.00270897 44585"}}, "geometry": {"type": "Point", "coordinates": [56.3037593630753, -1.3179248340600418]}}, {"type": "Feature", "properties": {"norad_id": 27513, "name": "INTELSAT 906 (IS-906)", "group": "intelsat", "lat": 3.4060302527608473, "lon": -144.64885083786237, "alt_km": 35769.17477963289, "timestamp": "2025-12-09T04:51:47.175644+00:00", "meta": {"OBJECT_NAME": "INTELSAT 906 (IS-906)", "OBJECT_ID": "2002-041A", "EPOCH": "2025-12-08T18:22:38.831808", "MEAN_MOTION": 1.00270837, "ECCENTRICITY": 0.0006089, "INCLINATION": 5.3187, "RA_OF_ASC_NODE": 75.2788, "ARG_OF_PERICENTER": 189.6104, "MEAN_ANOMALY": 152.6755, "EPHEMERIS_TYPE": 0, "CLASSIFICATION_TYPE": "U", "NORAD_CAT_ID": 27513, "ELEMENT_SET_NO": 999, "REV_AT_EPOCH": 8511, "BSTAR": 0, "MEAN_MOTION_DOT": 1.4e-07, "MEAN_MOTION_DDOT": 0}, "tle": {"line1": "1 27513U 02041A   25342.76572722  .00000014  00000+0  00000+0 0  9992", "line2": "2 27513   5.3187  75.2788 0006089 189.6104 152.6755  1.00270837 85117"}}, "geometry": {"type": "Point", "coordinates": [-144.64885083786237, 3.4060302527608473]}}, {"type": "Feature", "properties": {"norad_id": 27954, "name": "GALAXY 13 (HORIZONS-1)", "group": "intelsat", "lat": -0.9166543713628009, "lon": 1.1687069284927298, "alt_km": 35790.22703999206, "timestamp": "2025-12-09T04:51:47.175657+00:00", "meta": {"OBJECT_NAME": "GALAXY 13 (HORIZONS-1)", "OBJECT_ID": "2003-044A", "EPOCH": "2025-12-08T16:18:51.670080", "MEAN_MOTION": 1.00269733, "ECCENTRICITY": 0.000203, "INCLINATION": 0.9249, "RA_OF_ASC_NODE": 86.5233, "ARG_OF_PERICENTER": 160.3952, "MEAN_ANOMALY": 285.4875, "EPHEMERIS_TYPE": 0, "CLASSIFICATION_TYPE": "U", "NORAD_CAT_ID": 27954, "ELEMENT_SET_NO": 999, "REV_AT_EPOCH": 4466, "BSTAR": 0, "MEAN_MOTION_DOT": 1.35e-06, "MEAN_MOTION_DDOT": 0}, "tle": {"line1": "1 27954U 03044A   25342.67976470  .00000135  00000+0  00000+0 0  9997", "line2": "2 27954   0.9249  86.5233 0002030 160.3952 285.4875  1.00269733 44661"}}, "geometry": {"type": "Point", "coordinates": [1.1687069284927298, -0.9166543713628009]}}, {"type": "Feature", "properties": {"norad_id": 28358, "name": "INTELSAT 10-02", "group": "intelsat", "lat": 0.029784299090539576, "lon": 150.1552952514046, "alt_km": 35790.78204530968, "timestamp": "2025-12-09T04:51:47.175669+00:00", "meta": {"OBJECT_NAME": "INTELSAT 10-02", "OBJECT_ID": "2004-022A", "EPOCH": "2025-12-08T18:44:16.342944", "MEAN_MOTION": 1.00271324, "ECCENTRICITY": 0.0001333, "INCLINATION": 0.0308, "RA_OF_ASC_NODE": 71.0124, "ARG_OF_PERICENTER": 224.0151, "MEAN_ANOMALY": 62.8466, "EPHEMERIS_TYPE": 0, "CLASSIFICATION_TYPE": "U", "NORAD_CAT_ID": 28358, "ELEMENT_SET_NO": 999, "REV_AT_EPOCH": 7864, "BSTAR": 0, "MEAN_MOTION_DOT": -9e-08, "MEAN_MOTION_DDOT": 0}, "tle": {"line1": "1 28358U 04022A   25342.78074471 -.00000009  00000+0  00000+0 0  9996", "line2": "2 28358   0.0308  71.0124 0001333 224.0151  62.8466  1.00271324 78646"}}, "geometry": {"type": "Point", "coordinates": [150.1552952514046, 0.029784299090539576]}}, {"type": "Feature", "properties": {"norad_id": 28626, "name": "XM-3 (RHYTHM)", "group": "intelsat", "lat": -0.07805372439673802, "lon": -77.75924687863257, "alt_km": 36157.02801131899, "timestamp": "2025-12-09T04:51:47.175681+00:00", "meta": {"OBJECT_NAME": "XM-3 (RHYTHM)", "OBJECT_ID": "2005-008A", "EPOCH": "2025-12-08T19:22:20.198208", "MEAN_MOTION": 0.98953939, "ECCENTRICITY": 0.0001329, "INCLINATION": 0.1645, "RA_OF_ASC_NODE": 81.1557, "ARG_OF_PERICENTER": 262.9494, "MEAN_ANOMALY": 157.2768, "EPHEMERIS_TYPE": 0, "CLASSIFICATION_TYPE": "U", "NORAD_CAT_ID": 28626, "ELEMENT_SET_NO": 999, "REV_AT_EPOCH": 4071, "BSTAR": 0, "MEAN_MOTION_DOT": -2.51e-06, "MEAN_MOTION_DDOT": 0}, "tle": {"line1": "1 28626U 05008A   25342.80717822 -.00000251  00000+0  00000+0 0  9995", "line2": "2 28626   0.1645  81.1557 0001329 262.9494 157.2768  0.98953939 40713"}}, "geometry": {"type": "Point", "coordinates": [-77.75924687863257, -0.07805372439673802]}}]}